{"type": "FeatureCollection", "features": [ {"type": "Feature", "properties": {"norad_id": 41556, "name": "ZIYUAN 3-02 (ZY 3-02)", "group": "resource", "lat": 38.99619810313666, "lon": -101.66099207797583, "alt_km": 495.68455190091754, "timestamp": "2025-12-24T07:45:05.856215+00:00", "meta": {"OBJECT_NAME": "ZIYUAN 3-02 (ZY 3-02)", "OBJECT_ID": "2016-033A", "EPOCH": "2025-12-23T23:14:30.098688", "MEAN_MOTION": 15.21207999, "ECCENTRICITY": 0.00113474, "INCLINATION": 97.4027, "RA_OF_ASC_NODE": 71.9477, "ARG_OF_PERICENTER": 204.2534, "MEAN_ANOMALY": 155.8169, "EPHEMERIS_TYPE": 0, "CLASSIFICATION_TYPE": "U", "NORAD_CAT_ID": 41556, "ELEMENT_SET_NO": 999, "REV_AT_EPOCH": 53134, "BSTAR": 0.00035607753, "MEAN_MOTION_DOT": 7.89e-05, "MEAN_MOTION_DDOT": 0}, "tle": {"line1": "1 41556U 16033A   25357.96840392  .00007890  00000+0  35608-3 0  9995", "line2": "2 41556  97.4027  71.9477 0011347 204.2534 155.8169 15.21207999531349"}}, "geometry": {"type": "Point", "coordinates": [-101.66099207797583, 38.99619810313666]}}, {"type": "Feature", "properties": {"norad_id": 41599, "name": "CARTOSAT-2C", "group": "resource", "lat": -1.283560191810087, "lon": 55.621286241597275, "alt_km": 504.858249552859, "timestamp": "2025-12-24T07:45:05.856225+00:00", "meta": {"OBJECT_NAME": "CARTOSAT-2C", "OBJECT_ID": "2016-040A", "EPOCH": "2025-12-23T23:51:12.390624", "MEAN_MOTION": 15.19211205, "ECCENTRICITY": 0.00108484, "INCLINATION": 97.4748, "RA_OF_ASC_NODE": 55.1271, "ARG_OF_PERICENTER": 27.7923, "MEAN_ANOMALY": 332.3889, "EPHEMERIS_TYPE": 0, "CLASSIFICATION_TYPE": "U", "NORAD_CAT_ID": 41599, "ELEMENT_SET_NO": 999, "REV_AT_EPOCH": 52711, "BSTAR": 0.0001865691, "MEAN_MOTION_DOT": 3.864e-05, "MEAN_MOTION_DDOT": 0}, "tle": {"line1": "1 41599U 16040A   25357.99389341  .00003864  00000+0  18657-3 0  9997", "line2": "2 41599  97.4748  55.1271 0010848  27.7923 332.3889 15.19211205527110"}}, "geometry": {"type": "Point", "coordinates": [55.621286241597275, -1.283560191810087]}}, {"type": "Feature", "properties": {"norad_id": 41601, "name": "SKYSAT-C1", "group": "resource", "lat": -73.51569767972575, "lon": -169.77578923891602, "alt_km": 474.62845492970973, "timestamp": "2025-12-24T07:45:05.856235+00:00", "meta": {"OBJECT_NAME": "SKYSAT-C1", "OBJECT_ID": "2016-040C", "EPOCH": "2025-12-23T13:24:26.934912", "MEAN_MOTION": 15.32776934, "ECCENTRICITY": 0.00011111, "INCLINATION": 96.9803, "RA_OF_ASC_NODE": 33.962, "ARG_OF_PERICENTER": 332.3791, "MEAN_ANOMALY": 27.7393, "EPHEMERIS_TYPE": 0, "CLASSIFICATION_TYPE": "U", "NORAD_CAT_ID": 41601, "ELEMENT_SET_NO": 999, "REV_AT_EPOCH": 53093, "BSTAR": 0.00029928359, "MEAN_MOTION_DOT": 9.404e-05, "MEAN_MOTION_DDOT": 0}, "tle": {"line1": "1 41601U 16040C   25357.55864508  .00009404  00000+0  29928-3 0  9995", "line2": "2 41601  96.9803  33.9620 0001111 332.3791  27.7393 15.32776934530932"}}, "geometry": {"type": "Point", "coordinates": [-169.77578923891602, -73.51569767972575]}}, {"type": "Feature", "properties": {"norad_id": 41603, "name": "LAPAN-A3", "group": "resource", "lat": -6.642376594663537, "lon": -3.705080590059588, "alt_km": 472.5406560807369, "timestamp": "2025-12-24T07:45:05.856245+00:00", "meta": {"OBJECT_NAME": "LAPAN-A3", "OBJECT_ID": "2016-040E", "EPOCH": "2025-12-23T23:56:27.403296", "MEAN_MOTION": 15.3164015, "ECCENTRICITY": 0.00087118, "INCLINATION": 97.1432, "RA_OF_ASC_NODE": 355.1444, "ARG_OF_PERICENTER": 287.2678, "MEAN_ANOMALY": 72.7611, "EPHEMERIS_TYPE": 0, "CLASSIFICATION_TYPE": "U", "NORAD_CAT_ID": 41603, "ELEMENT_SET_NO": 999, "REV_AT_EPOCH": 52798, "BSTAR": 0.00015381156, "MEAN_MOTION_DOT": 4.629e-05, "MEAN_MOTION_DDOT": 0}, "tle": {"line1": "1 41603U 16040E   25357.99753939  .00004629  00000+0  15381-3 0  9992", "line2": "2 41603  97.1432 355.1444 0008711 287.2678  72.7611 15.31640150527986"}}, "geometry": {"type": "Point", "coordinates": [-3.705080590059588, -6.642376594663537]}}, {"type": "Feature", "properties": {"norad_id": 41604, "name": "BIROS", "group": "resource", "lat": 10.781213799815687, "lon": -148.38800420741597, "alt_km": 290.04446761890813, "timestamp": "2025-12-24T07:45:05.856256+00:00", "meta": {"OBJECT_NAME": "BIROS", "OBJECT_ID": "2016-040F", "EPOCH": "2025-12-23T00:54:41.222304", "MEAN_MOTION": 15.93712142, "ECCENTRICITY": 0.00037921, "INCLINATION": 97.067, "RA_OF_ASC_NODE": 28.9133, "ARG_OF_PERICENTER": 129.7524, "MEAN_ANOMALY": 230.4087, "EPHEMERIS_TYPE": 0, "CLASSIFICATION_TYPE": "U", "NORAD_CAT_ID": 41604, "ELEMENT_SET_NO": 999, "REV_AT_EPOCH": 53036, "BSTAR": 0.00061249698, "MEAN_MOTION_DOT": 0.00219845, "MEAN_MOTION_DDOT": 2.0271061e-05}, "tle": {"line1": "1 41604U 16040F   25357.03797711  .00219845  20271-4  61250-3 0  9995", "line2": "2 41604  97.0670  28.9133 0003792 129.7524 230.4087 15.93712142530369"}}, "geometry": {"type": "Point", "coordinates": [-148.38800420741597, 10.781213799815687]}}, {"type": "Feature", "properties": {"norad_id": 41727, "name": "GAOFEN-3", "group": "resource", "lat": 9.735541695020611, "lon": 2.2787397378826797, "alt_km": 752.2204256301202, "timestamp": "2025-12-24T07:45:05.856266+00:00", "meta": {"OBJECT_NAME": "GAOFEN-3", "OBJECT_ID": "2016-049A", "EPOCH": "2025-12-23T23:22:50.763360", "MEAN_MOTION": 14.42215865, "ECCENTRICITY": 0.00011241, "INCLINATION": 98.4033, "RA_OF_ASC_NODE": 3.3886, "ARG_OF_PERICENTER": 55.9372, "MEAN_ANOMALY": 304.1925, "EPHEMERIS_TYPE": 0, "CLASSIFICATION_TYPE": "U", "NORAD_CAT_ID": 41727, "ELEMENT_SET_NO": 999, "REV_AT_EPOCH": 49339, "BSTAR": -3.550458e-06, "MEAN_MOTION_DOT": -5.5e-07, "MEAN_MOTION_DDOT": 0}, "tle": {"line1": "1 41727U 16049A   25357.97419865 -.00000055  00000+0 -35505-5 0  9996", "line2": "2 41727  98.4033   3.3886 0001124  55.9372 304.1925 14.42215865493397"}}, "geometry": {"type": "Point", "coordinates": [2.2787397378826797, 9.735541695020611]}}, {"type": "Feature", "properties": {"norad_id": 41771, "name": "SKYSAT-C4", "group": "resource", "lat": -54.3342999474343, "lon": -166.8179962264686, "alt_km": 446.25400936527694, "timestamp": "2025-12-24T07:45:05.856276+00:00", "meta": {"OBJECT_NAME": "SKYSAT-C4", "OBJECT_ID": "2016-058B", "EPOCH": "2025-12-23T12:03:14.856192", "MEAN_MOTION": 15.42544852, "ECCENTRICITY": 0.00024428, "INCLINATION": 96.9361, "RA_OF_ASC_NODE": 22.1673, "ARG_OF_PERICENTER": 125.1845, "MEAN_ANOMALY": 234.9633, "EPHEMERIS_TYPE": 0, "CLASSIFICATION_TYPE": "U", "NORAD_CAT_ID": 41771, "ELEMENT_SET_NO": 999, "REV_AT_EPOCH": 51833, "BSTAR": 0.00035276823, "MEAN_MOTION_DOT": 0.00015244, "MEAN_MOTION_DDOT": 0}, "tle": {"line1": "1 41771U 16058B   25357.50225528  .00015244  00000+0  35277-3 0  9993", "line2": "2 41771  96.9361  22.1673 0002442 125.1845 234.9633 15.42544852518335"}}, "geometry": {"type": "Point", "coordinates": [-166.8179962264686, -54.3342999474343]}}, {"type": "Feature", "properties": {"norad_id": 41772, "name": "SKYSAT-C5", "group": "resource", "lat": 16.971673925265055, "lon": -136.23790916062035, "alt_km": 463.5586620820468, "timestamp": "2025-12-24T07:45:05.856286+00:00", "meta": {"OBJECT_NAME": "SKYSAT-C5", "OBJECT_ID": "2016-058C", "EPOCH": "2025-12-23T13:49:25.032288", "MEAN_MOTION": 15.34063697, "ECCENTRICITY": 0.00038982, "INCLINATION": 97.0738, "RA_OF_ASC_NODE": 40.8744, "ARG_OF_PERICENTER": 238.8594, "MEAN_ANOMALY": 121.2267, "EPHEMERIS_TYPE": 0, "CLASSIFICATION_TYPE": "U", "NORAD_CAT_ID": 41772, "ELEMENT_SET_NO": 999, "REV_AT_EPOCH": 51682, "BSTAR": 0.00029200062, "MEAN_MOTION_DOT": 9.554e-05, "MEAN_MOTION_DDOT": 0}, "tle": {"line1": "1 41772U 16058C   25357.57598417  .00009554  00000+0  29200-3 0  9997", "line2": "2 41772  97.0738  40.8744 0003898 238.8594 121.2267 15.34063697516828"}}, "geometry": {"type": "Point", "coordinates": [-136.23790916062035, 16.971673925265055]}}, {"type": "Feature", "properties": {"norad_id": 41773, "name": "SKYSAT-C2", "group": "resource", "lat": -48.68586850734242, "lon": 30.435406594764583, "alt_km": 459.0337881245532, "timestamp": "2025-12-24T07:45:05.856296+00:00", "meta": {"OBJECT_NAME": "SKYSAT-C2", "OBJECT_ID": "2016-058D", "EPOCH": "2025-12-23T13:13:16.589280", "MEAN_MOTION": 15.37504356, "ECCENTRICITY": 0.00029472, "INCLINATION": 97.0347, "RA_OF_ASC_NODE": 21.6195, "ARG_OF_PERICENTER": 2.412, "MEAN_ANOMALY": 357.7139, "EPHEMERIS_TYPE": 0, "CLASSIFICATION_TYPE": "U", "NORAD_CAT_ID": 41773, "ELEMENT_SET_NO": 999, "REV_AT_EPOCH": 51802, "BSTAR": 0.00033388131, "MEAN_MOTION_DOT": 0.00012212, "MEAN_MOTION_DDOT": 0}, "tle": {"line1": "1 41773U 16058D   25357.55088645  .00012212  00000+0  33388-3 0  9990", "line2": "2 41773  97.0347  21.6195 0002947   2.4120 357.7139 15.37504356518029"}}, "geometry": {"type": "Point", "coordinates": [30.435406594764583, -48.68586850734242]}}, {"type": "Feature", "properties": {"norad_id": 41774, "name": "SKYSAT-C3", "group": "resource", "lat": 77.16428660799649, "lon": -0.7223012785832662, "alt_km": 423.4374788372743, "timestamp": "2025-12-24T07:45:05.856306+00:00", "meta": {"OBJECT_NAME": "SKYSAT-C3", "OBJECT_ID": "2016-058E", "EPOCH": "2025-12-23T20:31:39.995328", "MEAN_MOTION": 15.44779636, "ECCENTRICITY": 0.00021217, "INCLINATION": 96.928, "RA_OF_ASC_NODE": 31.0851, "ARG_OF_PERICENTER": 105.9441, "MEAN_ANOMALY": 254.2042, "EPHEMERIS_TYPE": 0, "CLASSIFICATION_TYPE": "U", "NORAD_CAT_ID": 41774, "ELEMENT_SET_NO": 999, "REV_AT_EPOCH": 51897, "BSTAR": 0.00040043299, "MEAN_MOTION_DOT": 0.00018677, "MEAN_MOTION_DDOT": 0}, "tle": {"line1": "1 41774U 16058E   25357.85532402  .00018677  00000+0  40043-3 0  9996", "line2": "2 41774  96.9280  31.0851 0002121 105.9441 254.2042 15.44779636518978"}}, "geometry": {"type": "Point", "coordinates": [-0.7223012785832662, 77.16428660799649]}}]}